0 ORBCOMM FM 40
1 33065U 08031F   13281.44174295  .00000874  00000-0  17612-3 0  5940
2 33065 048.4453 279.8300 0009155 218.7405 296.4487 14.70144617284743
0 ORBCOMM FM 40
1 33065U 08031F   13282.45697369  .00001033  00000-0  20226-3 0  5958
2 33065 048.4453 275.0770 0009140 222.8709 269.7388 14.70151768284893
0 ORBCOMM FM 40
1 33065U 08031F   13283.47821051  .00001023  00000-0  20067-3 0  5961
2 33065 048.4453 270.2958 0009141 226.9884 274.8750 14.70153750285049
0 ORBCOMM FM 40
1 33065U 08031F   13286.11195488  .00000973  00000-0  19234-3 0  5982
2 33065 048.4455 257.9650 0009135 237.4483 174.7979 14.70159950285439
0 ORBCOMM FM 40
1 33065U 08031F   13287.13347494  .00001172  00000-0  22511-3 0  5996
2 33065 048.4455 253.1824 0009156 241.4609 181.5786 14.70162051285582
0 ORBCOMM FM 40
1 33065U 08031F   13288.16380256  .00001760  00000-0  32162-3 0  6002
2 33065 048.4455 248.3586 0009169 245.4548 235.0369 14.70167570285733
0 ORBCOMM FM 40
1 33065U 08031F   13289.39153870  .00001222  00000-0  23321-3 0  6019
2 33065 048.4455 242.6106 0009146 250.4217 253.1796 14.70172294285916
0 ORBCOMM FM 40
1 33065U 08031F   13290.41204755  .00001355  00000-0  25504-3 0  6026
2 33065 048.4455 237.8328 0009127 254.4725 254.6065 14.70175107286063
0 ORBCOMM FM 40
1 33065U 08031F   13292.09596949  .00001288  00000-0  24400-3 0  6031
2 33065 048.4453 229.9490 0009112 261.1076 167.4729 14.70178599286315
0 ORBCOMM FM 40
1 33065U 08031F   13293.11813271  .00001346  00000-0  25356-3 0  6042
2 33065 048.4453 225.1635 0009112 265.1142 177.7364 14.70181877286460
0 ORBCOMM FM 40
1 33065U 08031F   13294.28444883  .00001226  00000-0  23382-3 0  6055
2 33065 048.4452 219.7030 0009094 269.7419 230.9497 14.70186716286638
0 ORBCOMM FM 40
1 33065U 08031F   13295.30465671  .00001274  00000-0  24162-3 0  6068
2 33065 048.4451 214.9265 0009061 273.7850 230.8450 14.70190027286786
